H1 CPF 2 EUM 2024 11 21 06 326 1 sentinel6a 
H2 2008601 4380 46984 2024 11 21 00 00 00 2024 11 26 00 00 00 180 1 1 0 0 0 1
H9
10 0  60639  15480.000000  0        695696.187      -6948996.867       3282820.402
10 0  60639  15660.000000  0       1213856.007      -7298160.752       2195315.158
10 0  60639  15840.000000  0       1691502.907      -7456911.985       1046091.483
10 0  60639  16020.000000  0       2120382.351      -7419605.562       -132549.271
10 0  60639  16200.000000  0       2493684.508      -7185906.584      -1307464.381
10 0  60639  16380.000000  0       2806101.488      -6760839.486      -2445621.780
10 0  60639  16560.000000  0       3053840.306      -6154677.842      -3515047.094
10 0  60639  16740.000000  0       3234594.431      -5382678.932      -4485735.589
10 0  60639  16920.000000  0       3347478.093      -4464672.743      -5330498.516
10 0  60639  17100.000000  0       3392929.663      -3424522.611      -6025718.620
10 0  60639  17280.000000  0       3372591.790      -2289477.878      -6551994.929
10 0  60639  17460.000000  0       3289177.089      -1089440.682      -6894664.543
10 0  60639  17640.000000  0       3146326.255        143834.725      -7044192.549
10 0  60639  17820.000000  0       2948464.630       1377588.291      -6996421.328
10 0  60639  18000.000000  0       2700664.574       2578924.532      -6752678.179
10 0  60639  18180.000000  0       2408517.047       3715689.536      -6319741.262
10 0  60639  18360.000000  0       2078014.300       4757335.886      -5709663.532
10 0  60639  18540.000000  0       1715444.863       5675755.426      -4939455.710
10 0  60639  18720.000000  0       1327301.172       6446058.309      -4030632.036
10 0  60639  18900.000000  0        920198.533       7047275.533      -3008626.319
10 0  60639  19080.000000  0        500804.237       7462962.052      -1902090.056
10 0  60639  19260.000000  0         75775.927       7681677.717       -742089.340
10 0  60639  19440.000000  0       -348291.440       7697326.882        438775.707
10 0  60639  19620.000000  0       -764911.581       7509344.341       1607301.840
10 0  60639  19800.000000  0      -1167748.965       7122718.830       2730635.932
10 0  60639  19980.000000  0      -1550658.656       6547849.700       3777217.446
10 0  60639  20160.000000  0      -1907724.477       5800244.345       4717677.202
10 0  60639  20340.000000  0      -2233296.859       4900069.307       5525664.897
10 0  60639  20520.000000  0      -2522031.926       3871573.903       6178580.396
10 0  60639  20700.000000  0      -2768936.159       2742408.761       6658191.638
10 0  60639  20880.000000  0      -2969419.055       1542860.005       6951125.946
10 0  60639  21060.000000  0      -3119355.073        305022.244       7049225.077
10 0  60639  21240.000000  0      -3215156.099       -938067.609       6949759.347
10 0  60639  21420.000000  0      -3253854.232      -2153314.682       6655498.269
10 0  60639  21600.000000  0      -3233194.081      -3308448.907       6174638.728
10 0  60639  21780.000000  0      -3151732.241      -4372888.933       5520590.055
10 0  60639  21960.000000  0      -3008938.811      -5318564.502       4711616.681
10 0  60639  22140.000000  0      -2805296.551      -6120675.881       3770346.353
10 0  60639  22320.000000  0      -2542390.970      -6758370.950       2723151.696
10 0  60639  22500.000000  0      -2222983.874      -7215316.570       1599417.706
10 0  60639  22680.000000  0      -1851064.769      -7480144.274        430714.699
10 0  60639  22860.000000  0      -1431873.844      -7546753.636       -750100.406
10 0  60639  23040.000000  0       -971891.443      -7414459.934      -1909826.231
10 0  60639  23220.000000  0       -478791.515      -7087979.950      -3015870.137
10 0  60639  23400.000000  0         38641.603      -6577258.148      -4037180.258
10 0  60639  23580.000000  0        570632.877      -5897141.729      -4945126.201
10 0  60639  23760.000000  0       1106571.430      -5066919.025      -5714300.622
10 0  60639  23940.000000  0       1635198.013      -4109741.445      -6323219.504
10 0  60639  24120.000000  0       2144822.397      -3051950.336      -6754904.870
10 0  60639  24300.000000  0       2623567.223      -1922331.899      -6997337.602
10 0  60639  24480.000000  0       3059634.698       -751321.904      -7043774.358
10 0  60639  24660.000000  0       3441591.364        429819.776      -6892923.298
10 0  60639  24840.000000  0       3758666.630       1589843.679      -6548977.296
10 0  60639  25020.000000  0       4001059.264       2698337.240      -6021505.236
10 0  60639  25200.000000  0       4160243.632       3726525.604      -5325201.973
10 0  60639  25380.000000  0       4229266.731       4648028.758      -4479499.532
10 0  60639  25560.000000  0       4203024.771       5439555.944      -3508044.170
10 0  60639  25740.000000  0       4078507.158       6081516.787      -2438048.666
10 0  60639  25920.000000  0       3854996.182       6558529.377      -1299535.110
10 0  60639  26100.000000  0       3534211.665       6859808.623       -124487.936
10 0  60639  26280.000000  0       3120390.216       6979419.779       1054058.316
10 0  60639  26460.000000  0       2620292.763       6916387.148       2202965.908
10 0  60639  26640.000000  0       2043137.907       6674655.640       3289943.892
10 0  60639  26820.000000  0       1400461.222       6262908.993       4284470.254
10 0  60639  27000.000000  0        705902.420       5694253.663       5158657.447
10 0  60639  27180.000000  0        -25074.742       4985781.095       5888034.398
10 0  60639  27360.000000  0       -775521.923       4158027.370       6452219.760
10 0  60639  27540.000000  0      -1527394.460       3234355.256       6835473.049
10 0  60639  27720.000000  0      -2261981.039       2240277.282       7027115.238
10 0  60639  27900.000000  0      -2960365.864       1202740.045       7021810.976
10 0  60639  28080.000000  0      -3603914.386        149388.363       6819709.003
10 0  60639  28260.000000  0      -4174772.208       -892173.624       6426438.061
10 0  60639  28440.000000  0      -4656365.269      -1895106.525       5852958.515
10 0  60639  28620.000000  0      -5033890.098      -2834029.906       5115273.327
10 0  60639  28800.000000  0      -5294779.558      -3685672.517       4233999.718
10 0  60639  28980.000000  0      -5429127.032      -4429460.020       3233808.871
10 0  60639  29160.000000  0      -5430054.894      -5048024.932       2142746.555
10 0  60639  29340.000000  0      -5294011.335      -5527624.329        991448.601
10 0  60639  29520.000000  0      -5020979.815      -5858450.430       -187727.173
10 0  60639  29700.000000  0      -4614590.140      -6034823.855      -1361625.666
10 0  60639  29880.000000  0      -4082123.447      -6055263.136      -2497246.406
10 0  60639  30060.000000  0      -3434408.013      -5922429.105      -3562689.851
10 0  60639  30240.000000  0      -2685608.421      -5642949.584      -4528066.155
10 0  60639  30420.000000  0      -1852914.346      -5227134.476      -5366337.461
10 0  60639  30600.000000  0       -956139.494      -4688595.589      -6054068.694
10 0  60639  30780.000000  0        -17243.174      -4043788.526      -6572068.092
10 0  60639  30960.000000  0        940212.300      -3311494.288      -6905903.261
10 0  60639  31140.000000  0       1891654.041      -2512259.448      -7046283.204
10 0  60639  31320.000000  0       2812128.069      -1667812.561      -6989302.341
10 0  60639  31500.000000  0       3676953.196       -800470.397      -6736542.775
10 0  60639  31680.000000  0       4462383.841         67451.185      -6295032.800
10 0  60639  31860.000000  0       5146267.593        914208.898      -5677063.783
10 0  60639  32040.000000  0       5708682.120       1719175.229      -4899866.809
10 0  60639  32220.000000  0       6132533.149       2463341.020      -3985152.325
10 0  60639  32400.000000  0       6404094.113       3129765.949      -2958521.204
10 0  60639  32580.000000  0       6513468.395       3703966.122      -1848758.460
10 0  60639  32760.000000  0       6454953.497       4174227.011       -687025.292
10 0  60639  32940.000000  0       6227289.898       4531831.024        494025.770
10 0  60639  33120.000000  0       5833783.718       4771194.096       1661184.475
10 0  60639  33300.000000  0       5282295.510       4889908.886       2781635.594
10 0  60639  33480.000000  0       4585093.244       4888694.950       3823899.646
10 0  60639  33660.000000  0       3758572.743       4771260.041       4758729.659
10 0  60639  33840.000000  0       2822856.924       4544081.842       5559934.609
10 0  60639  34020.000000  0       1801286.812       4216121.773       6205107.344
10 0  60639  34200.000000  0        719821.948       3798484.651       6676235.621
10 0  60639  34380.000000  0       -393631.146       3304040.576       6960185.998
10 0  60639  34560.000000  0      -1509945.814       2747021.434       7049051.822
10 0  60639  34740.000000  0      -2599539.217       2142605.604       6940360.392
10 0  60639  34920.000000  0      -3633156.725       1506502.082       6637137.873
10 0  60639  35100.000000  0      -4582660.844        854543.317       6147831.385
10 0  60639  35280.000000  0      -5421806.944        202294.867       5486086.963
10 0  60639  35460.000000  0      -6126984.482       -435309.699       4670385.571
10 0  60639  35640.000000  0      -6677903.212      -1044301.411       3723544.484
10 0  60639  35820.000000  0      -7058203.245      -1611970.398       2672093.327
10 0  60639  36000.000000  0      -7255968.292      -2127115.680       1545537.957
10 0  60639  36180.000000  0      -7264121.281      -2580244.966        375529.024
10 0  60639  36360.000000  0      -7080683.121      -2963719.372       -805039.804
10 0  60639  36540.000000  0      -6708883.341      -3271840.147      -1962974.827
99